start=new Date('2022-05-28T00:00:00.000Z').valueOf();
sats=[{"DECAY_DATE":null,"LAUNCH_DATE":"2021-03-04","APOAPSIS":"548.335","BSTAR":"0.00013868000000","TLE_LINE2":"2 47736  53.0546 285.6100 0001595  61.8158 298.2992 15.06394624 69627","MEAN_ELEMENT_THEORY":"SGP4","RCS_SIZE":"LARGE","ARG_OF_PERICENTER":"61.8158","COUNTRY_CODE":"US","EPHEMERIS_TYPE":"0","MEAN_MOTION_DOT":"0.00001784","INCLINATION":"53.0546","ECCENTRICITY":"0.00015950","TIME_SYSTEM":"UTC","GP_ID":"204714873","MEAN_MOTION_DDOT":"0.0000000000000","OBJECT_ID":"2021-017Q","PERIAPSIS":"546.125","REF_FRAME":"TEME","SITE":"AFETR","NORAD_CAT_ID":"47736","TLE_LINE1":"1 47736U 21017Q   22147.70301673  .00001784  00000-0  13868-3 0  9990","MEAN_MOTION":"15.06394624","ELEMENT_SET_NO":"999","CLASSIFICATION_TYPE":"U","EPOCH":"2022-05-27T16:52:20.645472","PERIOD":"95.592","OBJECT_NAME":"STARLINK-2147","FILE":"3468079","REV_AT_EPOCH":"6962","RA_OF_ASC_NODE":"285.6100","OBJECT_TYPE":"PAYLOAD","SEMIMAJOR_AXIS":"6925.365","MEAN_ANOMALY":"298.2992","CENTER_NAME":"EARTH"},{"INCLINATION":"53.0570","ECCENTRICITY":"0.00022090","EPHEMERIS_TYPE":"0","MEAN_MOTION_DOT":"0.00005250","TIME_SYSTEM":"UTC","GP_ID":"204678157","MEAN_MOTION_DDOT":"0.0000000000000","APOAPSIS":"476.279","BSTAR":"0.00018840000000","TLE_LINE2":"2 47737  53.0570 205.6724 0002209  43.0464 317.0708 15.30351434 70732","MEAN_ELEMENT_THEORY":"SGP4","DECAY_DATE":null,"LAUNCH_DATE":"2021-03-04","ARG_OF_PERICENTER":"43.0464","COUNTRY_CODE":"US","RCS_SIZE":"LARGE","OBJECT_TYPE":"PAYLOAD","RA_OF_ASC_NODE":"205.6724","MEAN_ANOMALY":"317.0708","CENTER_NAME":"EARTH","SEMIMAJOR_AXIS":"6852.900","TLE_LINE1":"1 47737U 21017R   22147.57985713  .00005250  00000-0  18840-3 0  9996","ELEMENT_SET_NO":"999","MEAN_MOTION":"15.30351434","OBJECT_ID":"2021-017R","PERIAPSIS":"473.251","SITE":"AFETR","REF_FRAME":"TEME","NORAD_CAT_ID":"47737","PERIOD":"94.096","OBJECT_NAME":"STARLINK-2148","FILE":"3467585","REV_AT_EPOCH":"7073","CLASSIFICATION_TYPE":"U","EPOCH":"2022-05-27T13:54:59.656032"},{"ECCENTRICITY":"0.00018080","INCLINATION":"53.0537","EPHEMERIS_TYPE":"0","MEAN_MOTION_DOT":"0.00002371","TIME_SYSTEM":"UTC","GP_ID":"204716364","MEAN_MOTION_DDOT":"0.0000000000000","APOAPSIS":"555.967","BSTAR":"0.00018961000000","MEAN_ELEMENT_THEORY":"SGP4","TLE_LINE2":"2 47738  53.0537 285.2814 0001808  57.2523 302.8639 15.03956145 69639","DECAY_DATE":null,"LAUNCH_DATE":"2021-03-04","ARG_OF_PERICENTER":"57.2523","COUNTRY_CODE":"US","RCS_SIZE":"LARGE","OBJECT_TYPE":"PAYLOAD","RA_OF_ASC_NODE":"285.2814","MEAN_ANOMALY":"302.8639","CENTER_NAME":"EARTH","SEMIMAJOR_AXIS":"6932.849","ELEMENT_SET_NO":"999","TLE_LINE1":"1 47738U 21017S   22147.79174627  .00002371  00000-0  18961-3 0  9990","MEAN_MOTION":"15.03956145","PERIAPSIS":"553.460","OBJECT_ID":"2021-017S","NORAD_CAT_ID":"47738","REF_FRAME":"TEME","SITE":"AFETR","FILE":"3468079","PERIOD":"95.747","OBJECT_NAME":"STARLINK-2149","REV_AT_EPOCH":"6963","CLASSIFICATION_TYPE":"U","EPOCH":"2022-05-27T19:00:06.877728"},{"REV_AT_EPOCH":"6929","FILE":"3468079","PERIOD":"95.592","OBJECT_NAME":"STARLINK-2150","EPOCH":"2022-05-27T19:57:26.719200","CLASSIFICATION_TYPE":"U","TLE_LINE1":"1 47739U 21017T   22147.83155925  .00001929  00000-0  14833-3 0  9998","MEAN_MOTION":"15.06400254","ELEMENT_SET_NO":"999","NORAD_CAT_ID":"47739","SITE":"AFETR","REF_FRAME":"TEME","OBJECT_ID":"2021-017T","PERIAPSIS":"546.105","CENTER_NAME":"EARTH","MEAN_ANOMALY":"297.2748","SEMIMAJOR_AXIS":"6925.348","OBJECT_TYPE":"PAYLOAD","RA_OF_ASC_NODE":"310.0297","COUNTRY_CODE":"US","ARG_OF_PERICENTER":"62.8404","RCS_SIZE":"LARGE","MEAN_ELEMENT_THEORY":"SGP4","TLE_LINE2":"2 47739  53.0554 310.0297 0001600  62.8404 297.2748 15.06400254 69299","APOAPSIS":"548.321","BSTAR":"0.00014833000000","LAUNCH_DATE":"2021-03-04","DECAY_DATE":null,"MEAN_MOTION_DDOT":"0.0000000000000","GP_ID":"204715123","TIME_SYSTEM":"UTC","INCLINATION":"53.0554","ECCENTRICITY":"0.00016000","MEAN_MOTION_DOT":"0.00001929","EPHEMERIS_TYPE":"0"},{"MEAN_MOTION_DDOT":"0.0000000000000","GP_ID":"204715373","TIME_SYSTEM":"UTC","ECCENTRICITY":"0.00016320","INCLINATION":"53.0536","MEAN_MOTION_DOT":"-0.00000253","EPHEMERIS_TYPE":"0","COUNTRY_CODE":"US","ARG_OF_PERICENTER":"64.7480","RCS_SIZE":"LARGE","TLE_LINE2":"2 47740  53.0536 295.7047 0001632  64.7480 295.3677 15.06390311 69475","MEAN_ELEMENT_THEORY":"SGP4","APOAPSIS":"548.373","BSTAR":"0.00000190750000","LAUNCH_DATE":"2021-03-04","DECAY_DATE":null,"CENTER_NAME":"EARTH","MEAN_ANOMALY":"295.3677","SEMIMAJOR_AXIS":"6925.378","OBJECT_TYPE":"PAYLOAD","RA_OF_ASC_NODE":"295.7047","REV_AT_EPOCH":"6947","OBJECT_NAME":"STARLINK-2152","PERIOD":"95.593","FILE":"3468079","EPOCH":"2022-05-27T16:19:10.701408","CLASSIFICATION_TYPE":"U","MEAN_MOTION":"15.06390311","TLE_LINE1":"1 47740U 21017U   22147.67998497 -.00000253  00000-0  19075-5 0  9996","ELEMENT_SET_NO":"999","REF_FRAME":"TEME","SITE":"AFETR","NORAD_CAT_ID":"47740","PERIAPSIS":"546.113","OBJECT_ID":"2021-017U"},{"REV_AT_EPOCH":"6944","FILE":"3468079","OBJECT_NAME":"STARLINK-2154","PERIOD":"95.592","EPOCH":"2022-05-27T18:15:56.149920","CLASSIFICATION_TYPE":"U","ELEMENT_SET_NO":"999","TLE_LINE1":"1 47741U 21017V   22147.76106655 -.00000414  00000-0 -88610-5 0  9995","MEAN_MOTION":"15.06400221","NORAD_CAT_ID":"47741","REF_FRAME":"TEME","SITE":"AFETR","PERIAPSIS":"546.025","OBJECT_ID":"2021-017V","CENTER_NAME":"EARTH","MEAN_ANOMALY":"286.6474","SEMIMAJOR_AXIS":"6925.348","OBJECT_TYPE":"PAYLOAD","RA_OF_ASC_NODE":"295.3435","COUNTRY_CODE":"US","ARG_OF_PERICENTER":"73.4703","RCS_SIZE":"LARGE","MEAN_ELEMENT_THEORY":"SGP4","TLE_LINE2":"2 47741  53.0554 295.3435 0001715  73.4703 286.6474 15.06400221 69447","BSTAR":"-0.00000886100000","APOAPSIS":"548.401","LAUNCH_DATE":"2021-03-04","DECAY_DATE":null,"MEAN_MOTION_DDOT":"0.0000000000000","GP_ID":"204715622","TIME_SYSTEM":"UTC","INCLINATION":"53.0554","ECCENTRICITY":"0.00017150","MEAN_MOTION_DOT":"-0.00000414","EPHEMERIS_TYPE":"0"},{"MEAN_ELEMENT_THEORY":"SGP4","TLE_LINE2":"2 47742  53.0562 285.2904 0001359  59.3580 300.7543 15.06408005 69630","APOAPSIS":"548.130","BSTAR":"0.00011547000000","LAUNCH_DATE":"2021-03-04","DECAY_DATE":null,"COUNTRY_CODE":"US","ARG_OF_PERICENTER":"59.3580","RCS_SIZE":"LARGE","INCLINATION":"53.0562","ECCENTRICITY":"0.00013590","MEAN_MOTION_DOT":"0.00001439","EPHEMERIS_TYPE":"0","MEAN_MOTION_DDOT":"0.0000000000000","TIME_SYSTEM":"UTC","GP_ID":"204715865","MEAN_MOTION":"15.06408005","TLE_LINE1":"1 47742U 21017W   22147.77304776  .00001439  00000-0  11547-3 0  9990","ELEMENT_SET_NO":"999","NORAD_CAT_ID":"47742","SITE":"AFETR","REF_FRAME":"TEME","PERIAPSIS":"546.248","OBJECT_ID":"2021-017W","REV_AT_EPOCH":"6963","FILE":"3468079","OBJECT_NAME":"STARLINK-2156","PERIOD":"95.592","EPOCH":"2022-05-27T18:33:11.326464","CLASSIFICATION_TYPE":"U","OBJECT_TYPE":"PAYLOAD","RA_OF_ASC_NODE":"285.2904","CENTER_NAME":"EARTH","MEAN_ANOMALY":"300.7543","SEMIMAJOR_AXIS":"6925.324"},{"SEMIMAJOR_AXIS":"6925.399","MEAN_ANOMALY":"297.9241","CENTER_NAME":"EARTH","RA_OF_ASC_NODE":"285.1785","OBJECT_TYPE":"PAYLOAD","CLASSIFICATION_TYPE":"U","EPOCH":"2022-05-27T19:10:21.396000","PERIOD":"95.593","OBJECT_NAME":"STARLINK-2157","FILE":"3468079","REV_AT_EPOCH":"6961","PERIAPSIS":"545.991","OBJECT_ID":"2021-017X","SITE":"AFETR","REF_FRAME":"TEME","NORAD_CAT_ID":"47743","ELEMENT_SET_NO":"999","TLE_LINE1":"1 47743U 21017X   22147.79885875  .00001990  00000-0  15251-3 0  9995","MEAN_MOTION":"15.06383450","TIME_SYSTEM":"UTC","GP_ID":"204714624","MEAN_MOTION_DDOT":"0.0000000000000","EPHEMERIS_TYPE":"0","MEAN_MOTION_DOT":"0.00001990","ECCENTRICITY":"0.00018390","INCLINATION":"53.0557","RCS_SIZE":"LARGE","ARG_OF_PERICENTER":"62.1935","COUNTRY_CODE":"US","DECAY_DATE":null,"LAUNCH_DATE":"2021-03-04","APOAPSIS":"548.538","BSTAR":"0.00015251000000","TLE_LINE2":"2 47743  53.0557 285.1785 0001839  62.1935 297.9241 15.06383450 69616","MEAN_ELEMENT_THEORY":"SGP4"},{"MEAN_MOTION_DOT":"0.00000180","EPHEMERIS_TYPE":"0","INCLINATION":"53.0534","ECCENTRICITY":"0.00012480","MEAN_MOTION_DDOT":"0.0000000000000","TIME_SYSTEM":"UTC","GP_ID":"204714874","LAUNCH_DATE":"2021-03-04","DECAY_DATE":null,"MEAN_ELEMENT_THEORY":"SGP4","TLE_LINE2":"2 47744  53.0534 284.9816 0001248  80.1870 279.9260 15.06408123 69645","APOAPSIS":"548.053","BSTAR":"0.00003099300000","RCS_SIZE":"LARGE","COUNTRY_CODE":"US","ARG_OF_PERICENTER":"80.1870","RA_OF_ASC_NODE":"284.9816","OBJECT_TYPE":"PAYLOAD","SEMIMAJOR_AXIS":"6925.324","CENTER_NAME":"EARTH","MEAN_ANOMALY":"279.9260","NORAD_CAT_ID":"47744","SITE":"AFETR","REF_FRAME":"TEME","PERIAPSIS":"546.324","OBJECT_ID":"2021-017Y","TLE_LINE1":"1 47744U 21017Y   22147.84307118  .00000180  00000-0  30993-4 0  9992","ELEMENT_SET_NO":"999","MEAN_MOTION":"15.06408123","EPOCH":"2022-05-27T20:14:01.349952","CLASSIFICATION_TYPE":"U","REV_AT_EPOCH":"6964","FILE":"3468079","PERIOD":"95.592","OBJECT_NAME":"STARLINK-2158"},{"MEAN_ANOMALY":"282.3001","CENTER_NAME":"EARTH","SEMIMAJOR_AXIS":"6925.403","OBJECT_TYPE":"PAYLOAD","RA_OF_ASC_NODE":"295.7329","PERIOD":"95.593","OBJECT_NAME":"STARLINK-2159","FILE":"3468079","REV_AT_EPOCH":"6942","CLASSIFICATION_TYPE":"U","EPOCH":"2022-05-27T16:08:34.189152","TLE_LINE1":"1 47745U 21017Z   22147.67261793  .00000115  00000-0  26606-4 0  9996","ELEMENT_SET_NO":"999","MEAN_MOTION":"15.06382116","PERIAPSIS":"546.357","OBJECT_ID":"2021-017Z","SITE":"AFETR","REF_FRAME":"TEME","NORAD_CAT_ID":"47745","GP_ID":"204716121","TIME_SYSTEM":"UTC","MEAN_MOTION_DDOT":"0.0000000000000","ECCENTRICITY":"0.00013160","INCLINATION":"53.0549","EPHEMERIS_TYPE":"0","MEAN_MOTION_DOT":"0.00000115","ARG_OF_PERICENTER":"77.8135","COUNTRY_CODE":"US","RCS_SIZE":"LARGE","APOAPSIS":"548.180","BSTAR":"0.00002660600000","TLE_LINE2":"2 47745  53.0549 295.7329 0001316  77.8135 282.3001 15.06382116 69424","MEAN_ELEMENT_THEORY":"SGP4","DECAY_DATE":null,"LAUNCH_DATE":"2021-03-04"}];
